[{"OBJECT_NAME":"KUIPER-00012","OBJECT_ID":"2025-088E","EPOCH":"2026-03-09T07:27:05.838336","MEAN_MOTION":14.79920319,"ECCENTRICITY":5.889e-5,"INCLINATION":51.9012,"RA_OF_ASC_NODE":77.2556,"ARG_OF_PERICENTER":63.3583,"MEAN_ANOMALY":296.744,"EPHEMERIS_TYPE":0,"CLASSIFICATION_TYPE":"U","NORAD_CAT_ID":63728,"ELEMENT_SET_NO":999,"REV_AT_EPOCH":4786,"BSTAR":0.00051078078,"MEAN_MOTION_DOT":3.674e-5,"MEAN_MOTION_DDOT":0},{"OBJECT_NAME":"UOSAT 12 (UO-36)","OBJECT_ID":"1999-021A","EPOCH":"2026-03-09T22:06:39.543264","MEAN_MOTION":14.84155011,"ECCENTRICITY":0.00358391,"INCLINATION":64.5566,"RA_OF_ASC_NODE":7.9653,"ARG_OF_PERICENTER":233.978,"MEAN_ANOMALY":125.8004,"EPHEMERIS_TYPE":0,"CLASSIFICATION_TYPE":"U","NORAD_CAT_ID":25693,"ELEMENT_SET_NO":999,"REV_AT_EPOCH":45211,"BSTAR":0.00010593765,"MEAN_MOTION_DOT":7.46e-6,"MEAN_MOTION_DDOT":0}]
